{"fetched_at":"2026-07-07T18:29:46.995Z","source":"https://celestrak.org/NORAD/elements/gp.php?NAME=SENTINEL&FORMAT=JSON","constellation":"sentinel-6","records":[{"OBJECT_NAME":"SENTINEL-6A","OBJECT_ID":"2020-086A","EPOCH":"2026-07-07T03:37:26.311872","CLASSIFICATION_TYPE":"U","MEAN_MOTION":12.80930149,"ECCENTRICITY":0.0007835,"INCLINATION":66.0416,"RA_OF_ASC_NODE":93.5889,"ARG_OF_PERICENTER":270.0365,"MEAN_ANOMALY":89.9753,"EPHEMERIS_TYPE":0,"NORAD_CAT_ID":46984,"ELEMENT_SET_NO":999,"REV_AT_EPOCH":26288,"BSTAR":0.000066482,"MEAN_MOTION_DOT":-4.6e-7,"MEAN_MOTION_DDOT":0},{"OBJECT_NAME":"SENTINEL-6B","OBJECT_ID":"2025-264A","EPOCH":"2026-07-07T03:37:56.380800","CLASSIFICATION_TYPE":"U","MEAN_MOTION":12.80930114,"ECCENTRICITY":0.000789,"INCLINATION":66.0415,"RA_OF_ASC_NODE":93.7141,"ARG_OF_PERICENTER":268.8438,"MEAN_ANOMALY":91.1673,"EPHEMERIS_TYPE":0,"NORAD_CAT_ID":66514,"ELEMENT_SET_NO":999,"REV_AT_EPOCH":2972,"BSTAR":0.000050778,"MEAN_MOTION_DOT":-4.9e-7,"MEAN_MOTION_DDOT":0}]}
